[{"OBJECT_NAME":"STARLINK-4492","OBJECT_ID":"2022-097Y","EPOCH":"2026-03-09T12:15:42.662016","MEAN_MOTION":15.08834705,"ECCENTRICITY":0.00013159,"INCLINATION":53.2173,"RA_OF_ASC_NODE":114.924,"ARG_OF_PERICENTER":91.8187,"MEAN_ANOMALY":268.2956,"EPHEMERIS_TYPE":0,"CLASSIFICATION_TYPE":"U","NORAD_CAT_ID":53410,"ELEMENT_SET_NO":999,"REV_AT_EPOCH":19862,"BSTAR":-3.7538876e-5,"MEAN_MOTION_DOT":-8.85e-6,"MEAN_MOTION_DDOT":0},{"OBJECT_NAME":"SSA","OBJECT_ID":"1983-008E","EPOCH":"2026-03-09T21:11:47.750784","MEAN_MOTION":13.77143682,"ECCENTRICITY":0.07220619,"INCLINATION":63.3104,"RA_OF_ASC_NODE":301.3649,"ARG_OF_PERICENTER":133.1632,"MEAN_ANOMALY":233.2137,"EPHEMERIS_TYPE":0,"CLASSIFICATION_TYPE":"U","NORAD_CAT_ID":13844,"ELEMENT_SET_NO":999,"REV_AT_EPOCH":34517,"BSTAR":0.00050457017,"MEAN_MOTION_DOT":3.706e-5,"MEAN_MOTION_DDOT":0}]
